	<Item TLE="1 00152U 61015AN  10108.70711948  .00000260  00000-0  17953-3 0  9589 2 00152  66.5892 189.6928 0163237 240.8206 117.6463 14.07528248494324"/>
	<Item INCLINATION="66.589200000000005"/>
	<Item RAAN="189.693000000000010"/>
	<Item ECCENTRICITY="0.016323700000000"/>
	<Item PERIGEE="240.821000000000000"/>
	<Item MEAN_ANOMALY="117.646000000000000"/>
	<Item MEAN_MOTION="14.075300000000000"/>
	<Item Nation="8"/>
	<Item FlatType="2"/>
	<Item Mission="4"/>
	<Item SecretRank="0"/>
	<Item Apogee="985.000000000000000"/>
	<Item SatIconName="1.png#1.png"/>
	<Item SatModelName="北斗导航试验卫星"/>
</SateliteInfo>
<SateliteInfo>
	<Item ID="154"/>
	<Item NAME="00154"/>
	<Item TLE="1 00154U 61015AQ  10108.34471139 -.00000108  00000-0 -17392-4 0  4627 2 00154  66.6590 223.1620 0078616 102.4527 258.5365 14.03008881488073"/>
	<Item INCLINATION="66.659000000000006"/>
	<Item RAAN="223.162000000000010"/>
	<Item ECCENTRICITY="0.007861600000000"/>
	<Item PERIGEE="102.453000000000000"/>
	<Item MEAN_ANOMALY="258.536000000000000"/>
	<Item MEAN_MOTION="14.030099999999999"/>
	<Item Nation="1"/>
	<Item FlatType="1"/>
	<Item Mission="1"/>
	<Item SecretRank="0"/>
	<Item Apogee="940.000000000000000"/>
	<Item SatIconName="1.png#1.png"/>
	<Item SatModelName="北斗导航试验卫星"/>
</SateliteInfo>
<SateliteInfo>
	<Item ID="155"/>
	<Item NAME="00155"/>
	<Item TLE="1 00155U 61015AR  10108.50827880  .00000381  00000-0  16969-3 0  8098 2 00155  66.8768 344.0857 0046434 142.3841 218.0527 14.32441860512139"/>
	<Item INCLINATION="66.876800000000003"/>
	<Item RAAN="344.086000000000010"/>
	<Item ECCENTRICITY="0.004643400000000"/>
	<Item PERIGEE="142.383999999999990"/>
	<Item MEAN_ANOMALY="218.053000000000000"/>
	<Item MEAN_MOTION="14.324400000000001"/>
	<Item Nation="2"/>
	<Item FlatType="2"/>
	<Item Mission="2"/>
	<Item SecretRank="0"/>
	<Item Apogee="816.000000000000000"/>
	<Item SatIconName="1.png#1.png"/>
	<Item SatModelName="北斗导航试验卫星"/>
</SateliteInfo>
<SateliteInfo>
	<Item ID="158"/>
	<Item NAME="00158"/>
	<Item TLE="1 00158U 61015AU  10108.25920654  .00000292  00000-0  89685-3 0  6832 2 00158  67.0747 205.8962 0616097 223.8387 131.2147 12.64233194258527"/>
	<Item INCLINATION="67.074700000000007"/>
	<Item RAAN="205.895999999999990"/>
	<Item ECCENTRICITY="0.061609700000000"/>
	<Item PERIGEE="223.839000000000000"/>
	<Item MEAN_ANOMALY="131.215000000000000"/>
	<Item MEAN_MOTION="12.642300000000001"/>
	<Item Nation="3"/>
	<Item FlatType="1"/>
	<Item Mission="3"/>
	<Item SecretRank="0"/>
	<Item Apogee="1884.000000000000000"/>
	<Item SatIconName="1.png#1.png"/>
	<Item SatModelName="北斗导航试验卫星"/>
</SateliteInfo>
<SateliteInfo>
	<Item ID="159"/>
	<Item NAME="00159"/>
	<Item TLE="1 00159U 61015AV  10107.56372209 -.00000016  00000-0  12196-3 0  8237 2 00159  65.5331 306.8643 0379729 246.6238 109.4425 13.01134189312662"/>
	<Item INCLINATION="65.533100000000005"/>
	<Item RAAN="306.863999999999980"/>
	<Item ECCENTRICITY="0.037972900000000"/>
	<Item PERIGEE="246.624000000000000"/>
	<Item MEAN_ANOMALY="109.441999999999990"/>
	<Item MEAN_MOTION="13.011300000000000"/>
	<Item Nation="4"/>
	<Item FlatType="2"/>
	<Item Mission="4"/>
	<Item SecretRank="0"/>
	<Item Apogee="1547.000000000000000"/>
	<Item SatIconName="1.png#1.png"/>
	<Item SatModelName="北斗导航试验卫星"/>
</SateliteInfo>
<SateliteInfo>
	<Item ID="162"/>
	<Item NAME="00162"/>
	<Item TLE="1 00162U 61017A   10108.62477636 -.00000081  00000-0  23647-4 0  5289 2 00162  47.9005 161.5590 0045795 281.6915  77.8840 14.43155673563877"/>
	<Item INCLINATION="47.900500000000001"/>
	<Item RAAN="161.559000000000000"/>
	<Item ECCENTRICITY="0.004579500000000"/>
	<Item PERIGEE="281.692000000000010"/>
	<Item MEAN_ANOMALY="77.884000000000000"/>
	<Item MEAN_MOTION="14.431600000000000"/>
	<Item Nation="5"/>
	<Item FlatType="1"/>
	<Item Mission="1"/>
	<Item SecretRank="0"/>
	<Item Apogee="780.000000000000000"/>
	<Item SatIconName="1.png#1.png"/>
	<Item SatModelName="北斗导航试验卫星"/>
</SateliteInfo>
<SateliteInfo>
	<Item ID="163"/>
	<Item NAME="00163"/>
	<Item TLE="1 00163U 61018A   10108.85947723  .00000002  00000-0  10000-3 0  2114 2 00163  91.1913 301.6760 0100569 152.6331 207.9888  8.91830006587974"/>
	<Item INCLINATION="91.191299999999998"/>
	<Item RAAN="301.675999999999990"/>
	<Item ECCENTRICITY="0.010056900000000"/>
	<Item PERIGEE="152.633000000000010"/>
	<Item MEAN_ANOMALY="207.989000000000000"/>
	<Item MEAN_MOTION="8.918300000000000"/>
	<Item Nation="6"/>
	<Item FlatType="2"/>
	<Item Mission="2"/>
	<Item SecretRank="0"/>
	<Item Apogee="3542.000000000000000"/>
	<Item SatIconName="1.png#1.png"/>
	<Item SatModelName="北斗导航试验卫星"/>
</SateliteInfo>
<SateliteInfo>
	<Item ID="165"/>
	<Item NAME="00165"/>
	<Item TLE="1 00165U 61017B   10108.72864709  .00001719  00000-0  11926-3 0   980 2 00165  47.8767 212.1615 0011084  56.1183 304.0756 15.10615118601808"/>
	<Item INCLINATION="47.876700000000000"/>
	<Item RAAN="212.161000000000000"/>
	<Item ECCENTRICITY="0.001108400000000"/>
	<Item PERIGEE="56.118299999999998"/>
	<Item MEAN_ANOMALY="304.076000000000020"/>
	<Item MEAN_MOTION="15.106199999999999"/>
	<Item Nation="7"/>
	<Item FlatType="1"/>
	<Item Mission="3"/>
	<Item SecretRank="0"/>
	<Item Apogee="541.000000000000000"/>
	<Item SatIconName="1.png#1.png"/>
	<Item SatModelName="北斗导航试验卫星"/>
</SateliteInfo>
<SateliteInfo>
	<Item ID="167"/>
	<Item NAME="00167"/>
	<Item TLE="1 00167U 61017D   10109.15897503  .00000125  00000-0  12058-3 0  7094 2 00167  47.8480  34.5447 0092913  97.0076 264.1264 14.21714739524709"/>
	<Item INCLINATION="47.847999999999999"/>
	<Item RAAN="34.544699999999999"/>
	<Item ECCENTRICITY="0.009291300000000"/>
	<Item PERIGEE="97.007599999999996"/>
	<Item MEAN_ANOMALY="264.125999999999980"/>
	<Item MEAN_MOTION="14.217100000000000"/>
	<Item Nation="8"/>
	<Item FlatType="2"/>
	<Item Mission="4"/>
	<Item SecretRank="0"/>
	<Item Apogee="886.000000000000000"/>
	<Item SatIconName="1.png#1.png"/>
	<Item SatModelName="北斗导航试验卫星"/>
</SateliteInfo>
<SateliteInfo>
	<Item ID="172"/>
	<Item NAME="00172"/>
	<Item TLE="1 00172U 61015AY  10107.96823411  .00000222  00000-0  38985-3 0  3554 2 00172  67.0686 320.6937 0142575 289.1761  69.3917 13.55800448404273"/>
	<Item INCLINATION="67.068600000000004"/>
	<Item RAAN="320.694000000000020"/>
	<Item ECCENTRICITY="0.014257500000000"/>
	<Item PERIGEE="289.175999999999990"/>
	<Item MEAN_ANOMALY="69.391700000000000"/>
	<Item MEAN_MOTION="13.558000000000000"/>
	<Item Nation="1"/>
	<Item FlatType="1"/>
	<Item Mission="1"/>
	<Item SecretRank="0"/>
	<Item Apogee="1156.000000000000000"/>
	<Item SatIconName="1.png#1.png"/>
	<Item SatModelName="北斗导航试验卫星"/>
</SateliteInfo>
<SateliteInfo>
	<Item ID="177"/>
	<Item NAME="00177"/>
	<Item TLE="1 00177U 61015BB  10108.53832506  .00000299  00000-0  19151-3 0  6335 2 00177  66.6587 135.9202 0126130 249.4216 109.3302 14.12413957507443"/>
	<Item INCLINATION="66.658699999999996"/>
	<Item RAAN="135.919999999999990"/>
	<Item ECCENTRICITY="0.012613000000000"/>
	<Item PERIGEE="249.422000000000000"/>
	<Item MEAN_ANOMALY="109.330000000000000"/>
	<Item MEAN_MOTION="14.124100000000000"/>
	<Item Nation="2"/>
	<Item FlatType="2"/>
	<Item Mission="2"/>
	<Item SecretRank="0"/>
	<Item Apogee="942.000000000000000"/>
	<Item SatIconName="1.png#1.png"/>
	<Item SatModelName="北斗导航试验卫星"/>
</SateliteInfo>
<SateliteInfo>
	<Item ID="178"/>
	<Item NAME="00178"/>
	<Item TLE="1 00178U 61015BC  10108.13898441 -.00000032  00000-0  34194-4 0  4184 2 00178  66.8637  14.2293 0086436 243.0187 116.2027 13.91793751475783"/>
	<Item INCLINATION="66.863699999999994"/>
	<Item RAAN="14.229300000000000"/>
	<Item ECCENTRICITY="0.008643600000000"/>
	<Item PERIGEE="243.019000000000010"/>
	<Item MEAN_ANOMALY="116.203000000000000"/>
	<Item MEAN_MOTION="13.917899999999999"/>
	<Item Nation="3"/>
	<Item FlatType="1"/>
	<Item Mission="3"/>
	<Item SecretRank="0"/>
	<Item Apogee="985.000000000000000"/>
	<Item SatIconName="1.png#1.png"/>
	<Item SatModelName="北斗导航试验卫星"/>
</SateliteInfo>
<SateliteInfo>
	<Item ID="188"/>
	<Item NAME="00188"/>
	<Item TLE="1 00188U 61018C   10108.61302731  .00000002  00000-0  10000-3 0  1871 2 00188  91.1845 303.8959 0108710  43.5876 317.3530  8.93773770591046"/>
	<Item INCLINATION="91.184500000000000"/>
	<Item RAAN="303.896000000000020"/>
	<Item ECCENTRICITY="0.010871000000000"/>
	<Item PERIGEE="43.587600000000002"/>
	<Item MEAN_ANOMALY="317.353000000000010"/>
	<Item MEAN_MOTION="8.937740000000000"/>
	<Item Nation="4"/>
	<Item FlatType="2"/>
	<Item Mission="4"/>
	<Item SecretRank="0"/>
	<Item Apogee="3536.000000000000000"/>
	<Item SatIconName="1.png#1.png"/>
	<Item SatModelName="北斗导航试验卫星"/>
</SateliteInfo>
<SateliteInfo>
	<Item ID="192"/>
	<Item NAME="00192"/>
	<Item TLE="1 00192U 61028A   10108.91299586 -.00000003  00000-0  10000-3 0  2146 2 00192  95.8652  61.7976 0142276 345.3668  14.3093  8.67766100536355"/>
	<Item INCLINATION="95.865200000000002"/>
	<Item RAAN="61.797600000000003"/>
	<Item ECCENTRICITY="0.014227600000000"/>
	<Item PERIGEE="345.367000000000020"/>
	<Item MEAN_ANOMALY="14.309300000000000"/>
	<Item MEAN_MOTION="8.677660000000000"/>
	<Item Nation="5"/>
	<Item FlatType="1"/>
	<Item Mission="1"/>
	<Item SecretRank="0"/>
	<Item Apogee="3767.000000000000000"/>
	<Item SatIconName="1.png#1.png"/>
	<Item SatModelName="北斗导航试验卫星"/>
</SateliteInfo>
<SateliteInfo>
	<Item ID="194"/>
	<Item NAME="00194"/>
	<Item TLE="1 00194U 61028C   10107.40886093 -.00000004  00000-0  10000-3 0  7816 2 00194  95.8531  78.0519 0324542 247.8775 108.7330  8.69984430539995"/>
	<Item INCLINATION="95.853099999999998"/>
	<Item RAAN="78.051900000000003"/>
	<Item ECCENTRICITY="0.032454200000000"/>
	<Item PERIGEE="247.877000000000010"/>
	<Item MEAN_ANOMALY="108.733000000000000"/>
	<Item MEAN_MOTION="8.699840000000000"/>
	<Item Nation="6"/>
	<Item FlatType="2"/>
